MOLNIYA 2-9             
1 07276U 74026A   19253.36522691 -.00000075  00000-0  14973-2 0  9994
2 07276  63.7140  28.2234 6845240 289.1957  12.2177  2.45094526224607
MOLNIYA 2-10            
1 07376U 74056A   19253.13476017  .00000412  00000-0  00000+0 0  9990
2 07376  63.4683 197.8910 6851779 293.9751  10.8717  2.01064331330065
MOLNIYA 1-S             
1 07392U 74060A   19253.03663181 -.00000363  00000-0  00000+0 0  9998
2 07392   7.5254 297.2662 0007851 184.8731 347.1956  1.00284895109375
MOLNIYA 1-29            
1 07780U 75036A   19253.34359334  .00000188  00000-0 -49605-4 0  9993
2 07780  62.6194 356.3730 7464879 285.8558   9.5604  2.00618568325364
MOLNIYA 2-14            
1 08195U 75081A   19252.19896453 -.00001261  00000-0  46339-3 0  9997
2 08195  62.8137 321.8559 7417684 290.7544   8.8460  2.02108104322453
MOLNIYA 1-32            
1 08601U 76006A   19252.64008512  .00000895  00000-0  31323-3 0  9996
2 08601  62.3428  94.0528 7332847 275.8505  12.5937  1.99936770318769
MOLNIYA 2-17            
1 09829U 77010A   19252.91126423  .00059732  10947-5  33122-3 0  9996
2 09829  61.3604  94.7690 7531490 275.2041  11.3968  2.02390243309145
MOLNIYA 1-36            
1 09880U 77021A   19250.13642994  .00001611  00000-0  27059-3 0  9992
2 09880  62.0594  69.4234 7462493 280.3776  10.6088  2.00641258209102
MOLNIYA 3-8             
1 10455U 77105A   19251.82864294  .00001278  00000-0  60208-2 0  9992
2 10455  62.1488 150.5190 7180320 274.3567  14.1350  2.00493518306827
MOLNIYA 1-40            
1 10925U 78055A   19252.85672893  .00000221  00000-0 -29118-1 0  9997
2 10925  62.4094 181.9501 7047396 277.5498  14.0995  2.00502134302423
MOLNIYA 3-10            
1 11057U 78095A   19252.56807266  .00001481  00000-0  22006-3 0  9999
2 11057  62.6244  68.5685 5979805 292.3899  16.4672  4.08857274342283
MOLNIYA 3-13            
1 11896U 80063A   19252.09389369  .00000136  00000-0 -46421-4 0  9990
2 11896  62.5574 268.4519 7296723 274.1795  13.2767  2.00576059286806
MOLNIYA 1-49            
1 12156U 81009A   19252.08323254 -.00000257  00000-0  34907-2 0  9999
2 12156  62.6642 317.0694 7257047 249.3398  24.0085  2.05700060200699
MOLNIYA 1-52            
1 13012U 81123A   19253.43956282 -.00001262  00000-0  00000+0 0  9992
2 13012  63.8710  65.4838 7149486 248.6473  25.7647  2.00702109276367
MOLNIYA 1-53            
1 13070U 82015A   19253.29914510 -.00000376  00000-0  18048-3 0  9999
2 13070  62.4810   8.5904 7514218 271.9108  12.5185  2.00736522274963
MOLNIYA 3-20            
1 13875U 83015A   19252.63857326 -.00001147  00000-0 -37989-1 0  9992
2 13875  63.5763 135.2403 6982956 256.2312  18.5215  2.00519320203403
MOLNIYA 1-56            
1 13890U 83019A   19253.11332975 -.00001124  00000-0  00000+0 0  9991
2 13890  63.2490 159.7282 6984141 260.8497 332.4606  1.99881915266391
MOLNIYA 1-62            
1 15214U 84089A   19252.91546200  .00001366  00000-0  95389-2 0  9990
2 15214  62.7374 170.4900 7167747 264.0023  17.8312  1.97938905224237
MOLNIYA 1-63            
1 15429U 84124A   19253.42548722 -.00001023  00000-0  00000+0 0  9990
2 15429  63.8737 263.2710 6699386 268.3547 333.5175  2.00770357254526
MOLNIYA 3-24            
1 15738U 85040A   19252.49612664  .00000094  00000-0 -32107-2 0  9997
2 15738  63.9429 249.4902 6462154 254.8843 345.5520  2.55630349278032
MOLNIYA 3-27            
1 16393U 85117A   19253.15069905  .00000114  00000-0 -61563-1 0  9998
2 16393  64.6715 193.2643 6462263 261.2164 195.9150  2.12400402252714
MOLNIYA 1-69            
1 17078U 86089A   19253.41026472 -.00000009  00000-0  10779+0 0  9993
2 17078  64.2223 285.7165 6827783 268.1705  28.2033  2.00643496240556
MOLNIYA 3-31            
1 17328U 87008A   19252.00080132  .00000165  00000-0  00000+0 0  9998
2 17328  63.8499 233.6690 6721978 263.4018  22.1431  2.00539611235588
MOLNIYA 1-71            
1 18946U 88017A   19253.47099983  .00000417  00000-0  30991-1 0  9996
2 18946  63.5819 236.2619 6853760 263.4414 346.5435  2.00627883230810
MOLNIYA 1-75            
1 19807U 89014A   19250.27582255 -.00000767  00000-0  28021-1 0  9995
2 19807  64.2431  46.2465 7020886 273.0692  15.7724  2.00498378223749
MOLNIYA 1-80            
1 21118U 91012A   19252.64980070 -.00000389  00000-0 -43543-1 0  9991
2 21118  63.8928  89.1120 6828256 288.1090  12.5497  2.05248197210231
MOLNIYA 3-40            
1 21196U 91022A   19250.58500801 -.00000678  00000-0  00000+0 0  9998
2 21196  64.1035  82.0277 6858769 285.3432  13.1129  2.03025697209071
MOLNIYA 1-81            
1 21426U 91043A   19252.65394085  .00000087  00000-0  00000+0 0  9995
2 21426  63.8543 108.5663 6888808 273.8707  16.4807  2.00592500206855
MOLNIYA 3-41            
1 21706U 91065A   19252.92046378  .00000075  00000-0  75339-1 0  9995
2 21706  64.2826 272.9566 6865419 267.4362  15.4329  2.04345368206267
MOLNIYA 3-42            
1 22178U 92067A   19253.15404063  .00000010  00000-0  00000+0 0  9997
2 22178  64.6620 335.8328 6842361 280.7958  14.6865  2.20433316202229
MOLNIYA 1-86            
1 22671U 93035A   19253.35919732  .00000036  00000-0  41368-4 0  9992
2 22671  63.1168 100.9465 4838948 353.0037   2.2018  5.62588140295362
MOLNIYA 1-87            
1 22949U 93079A   19252.07610874  .00001270  00000-0  14847-1 0  9991
2 22949  63.3433 204.2637 6944573 290.2774  11.2510  2.02858793188756
MOLNIYA 1-88            
1 23420U 94081A   19252.51902053 -.00000023  00000-0 -37959-3 0  9990
2 23420  63.8330  73.9673 6039111 297.0143  14.5923  3.34490874213099
MOLNIYA 3-47            
1 23642U 95042A   19252.16929338 -.00000122  00000-0  69552-1 0  9991
2 23642  63.1676 187.2812 6900195 289.3660  11.7685  2.01928935176596
MOLNIYA 1-90            
1 24960U 97054A   19252.44162852 -.00000060  00000-0  19819-3 0  9995
2 24960  63.1356  51.1798 6410548 299.7703  11.7882  3.18684242175832
MOLNIYA 1-91            
1 25485U 98054A   19252.69488484  .00001143  00000-0  22398-3 0  9996
2 25485  62.6525 327.7102 7221018 285.6969 343.0530  2.36303433154454
MOLNIYA 3-50            
1 25847U 99036A   19252.70352079 -.00000261  00000-0 -83893-2 0  9999
2 25847  62.1376 133.8962 7250573 272.7881  14.0895  2.00606723147813
